{"type": "FeatureCollection", "features": [ {"type": "Feature", "properties": {"norad_id": 35484, "name": "IRIDIUM 33 DEB", "group": "iridium-33-debris", "lat": 53.327569308481856, "lon": 161.41261360711457, "alt_km": 551.8083721215817, "timestamp": "2025-12-26T11:25:45.576441+00:00", "meta": {"OBJECT_NAME": "IRIDIUM 33 DEB", "OBJECT_ID": "1997-051QE", "EPOCH": "2025-12-23T05:59:10.354560", "MEAN_MOTION": 14.99264182, "ECCENTRICITY": 0.00245796, "INCLINATION": 86.3609, "RA_OF_ASC_NODE": 347.8264, "ARG_OF_PERICENTER": 91.5392, "MEAN_ANOMALY": 268.8655, "EPHEMERIS_TYPE": 0, "CLASSIFICATION_TYPE": "U", "NORAD_CAT_ID": 35484, "ELEMENT_SET_NO": 999, "REV_AT_EPOCH": 62173, "BSTAR": 0.0029536278, "MEAN_MOTION_DOT": 0.00036413, "MEAN_MOTION_DDOT": 0}, "tle": {"line1": "1 35484U 97051QE  25357.24942540  .00036413  00000+0  29536-2 0  9991", "line2": "2 35484  86.3609 347.8264 0024579  91.5392 268.8655 14.99264182621733"}}, "geometry": {"type": "Point", "coordinates": [161.41261360711457, 53.327569308481856]}}, {"type": "Feature", "properties": {"norad_id": 35488, "name": "IRIDIUM 33 DEB", "group": "iridium-33-debris", "lat": 5.898805576510463, "lon": 114.16371842907071, "alt_km": 640.4771081000144, "timestamp": "2025-12-26T11:25:45.576450+00:00", "meta": {"OBJECT_NAME": "IRIDIUM 33 DEB", "OBJECT_ID": "1997-051QJ", "EPOCH": "2025-12-24T19:47:30.471936", "MEAN_MOTION": 14.83358408, "ECCENTRICITY": 0.00280046, "INCLINATION": 86.3249, "RA_OF_ASC_NODE": 295.3058, "ARG_OF_PERICENTER": 2.7873, "MEAN_ANOMALY": 357.3501, "EPHEMERIS_TYPE": 0, "CLASSIFICATION_TYPE": "U", "NORAD_CAT_ID": 35488, "ELEMENT_SET_NO": 999, "REV_AT_EPOCH": 88445, "BSTAR": 0.0017384526, "MEAN_MOTION_DOT": 0.00014384, "MEAN_MOTION_DDOT": 0}, "tle": {"line1": "1 35488U 97051QJ  25358.82465824  .00014384  00000+0  17385-2 0  9997", "line2": "2 35488  86.3249 295.3058 0028004   2.7873 357.3501 14.83358408884452"}}, "geometry": {"type": "Point", "coordinates": [114.16371842907071, 5.898805576510463]}}, {"type": "Feature", "properties": {"norad_id": 35616, "name": "IRIDIUM 33 DEB", "group": "iridium-33-debris", "lat": -86.12100123844918, "lon": -90.60320804804809, "alt_km": 637.2866896035002, "timestamp": "2025-12-26T11:25:45.576459+00:00", "meta": {"OBJECT_NAME": "IRIDIUM 33 DEB", "OBJECT_ID": "1997-051QN", "EPOCH": "2025-12-21T16:46:45.287328", "MEAN_MOTION": 14.82015021, "ECCENTRICITY": 0.00114093, "INCLINATION": 86.3545, "RA_OF_ASC_NODE": 341.6744, "ARG_OF_PERICENTER": 134.0095, "MEAN_ANOMALY": 226.2069, "EPHEMERIS_TYPE": 0, "CLASSIFICATION_TYPE": "U", "NORAD_CAT_ID": 35616, "ELEMENT_SET_NO": 999, "REV_AT_EPOCH": 87707, "BSTAR": 0.0013754653, "MEAN_MOTION_DOT": 0.00010957, "MEAN_MOTION_DDOT": 0}, "tle": {"line1": "1 35616U 97051QN  25355.69913527  .00010957  00000+0  13755-2 0  9999", "line2": "2 35616  86.3545 341.6744 0011409 134.0095 226.2069 14.82015021877070"}}, "geometry": {"type": "Point", "coordinates": [-90.60320804804809, -86.12100123844918]}}, {"type": "Feature", "properties": {"norad_id": 35618, "name": "IRIDIUM 33 DEB", "group": "iridium-33-debris", "lat": 13.101188080355756, "lon": -11.64682919818086, "alt_km": 703.2559144737306, "timestamp": "2025-12-26T11:25:45.576468+00:00", "meta": {"OBJECT_NAME": "IRIDIUM 33 DEB", "OBJECT_ID": "1997-051QQ", "EPOCH": "2025-12-21T17:16:24.492288", "MEAN_MOTION": 14.52331103, "ECCENTRICITY": 0.00284149, "INCLINATION": 86.341, "RA_OF_ASC_NODE": 349.5786, "ARG_OF_PERICENTER": 351.4344, "MEAN_ANOMALY": 8.6373, "EPHEMERIS_TYPE": 0, "CLASSIFICATION_TYPE": "U", "NORAD_CAT_ID": 35618, "ELEMENT_SET_NO": 999, "REV_AT_EPOCH": 65524, "BSTAR": 0.00039049847, "MEAN_MOTION_DOT": 1.617e-05, "MEAN_MOTION_DDOT": 0}, "tle": {"line1": "1 35618U 97051QQ  25355.71972792  .00001617  00000+0  39050-3 0  9993", "line2": "2 35618  86.3410 349.5786 0028414 351.4344   8.6373 14.52331103655244"}}, "geometry": {"type": "Point", "coordinates": [-11.64682919818086, 13.101188080355756]}}, {"type": "Feature", "properties": {"norad_id": 35620, "name": "IRIDIUM 33 DEB", "group": "iridium-33-debris", "lat": 21.524373881657407, "lon": -146.91275256351952, "alt_km": 860.177296851175, "timestamp": "2025-12-26T11:25:45.576477+00:00", "meta": {"OBJECT_NAME": "IRIDIUM 33 DEB", "OBJECT_ID": "1997-051QS", "EPOCH": "2025-12-24T07:34:12.963648", "MEAN_MOTION": 14.38396346, "ECCENTRICITY": 0.01383994, "INCLINATION": 86.3888, "RA_OF_ASC_NODE": 212.5717, "ARG_OF_PERICENTER": 220.3755, "MEAN_ANOMALY": 138.7108, "EPHEMERIS_TYPE": 0, "CLASSIFICATION_TYPE": "U", "NORAD_CAT_ID": 35620, "ELEMENT_SET_NO": 999, "REV_AT_EPOCH": 60132, "BSTAR": 0.0050036177, "MEAN_MOTION_DOT": 0.00017094, "MEAN_MOTION_DDOT": 0}, "tle": {"line1": "1 35620U 97051QS  25358.31542782  .00017094  00000+0  50036-2 0  9999", "line2": "2 35620  86.3888 212.5717 0138399 220.3755 138.7108 14.38396346601328"}}, "geometry": {"type": "Point", "coordinates": [-146.91275256351952, 21.524373881657407]}}, {"type": "Feature", "properties": {"norad_id": 35622, "name": "IRIDIUM 33 DEB", "group": "iridium-33-debris", "lat": -3.937332662120394, "lon": 77.08888952533285, "alt_km": 551.4466360694187, "timestamp": "2025-12-26T11:25:45.576495+00:00", "meta": {"OBJECT_NAME": "IRIDIUM 33 DEB", "OBJECT_ID": "1997-051QU", "EPOCH": "2025-12-25T17:12:10.126368", "MEAN_MOTION": 15.06103394, "ECCENTRICITY": 0.0003068, "INCLINATION": 86.1982, "RA_OF_ASC_NODE": 257.202, "ARG_OF_PERICENTER": 275.1977, "MEAN_ANOMALY": 113.6581, "EPHEMERIS_TYPE": 0, "CLASSIFICATION_TYPE": "U", "NORAD_CAT_ID": 35622, "ELEMENT_SET_NO": 999, "REV_AT_EPOCH": 87555, "BSTAR": 0.0039806522, "MEAN_MOTION_DOT": 0.00058587, "MEAN_MOTION_DDOT": 0}, "tle": {"line1": "1 35622U 97051QU  25359.71678387  .00058587  00000+0  39807-2 0  9992", "line2": "2 35622  86.1982 257.2020 0003068 275.1977 113.6581 15.06103394875554"}}, "geometry": {"type": "Point", "coordinates": [77.08888952533285, -3.937332662120394]}}, {"type": "Feature", "properties": {"norad_id": 35628, "name": "IRIDIUM 33 DEB", "group": "iridium-33-debris", "lat": -51.49417468521271, "lon": -1.6456397367773337, "alt_km": 668.9448073089898, "timestamp": "2025-12-26T11:25:45.576505+00:00", "meta": {"OBJECT_NAME": "IRIDIUM 33 DEB", "OBJECT_ID": "1997-051RA", "EPOCH": "2025-12-24T07:18:18.749088", "MEAN_MOTION": 14.67742209, "ECCENTRICITY": 0.00093407, "INCLINATION": 86.3568, "RA_OF_ASC_NODE": 3.9163, "ARG_OF_PERICENTER": 298.0786, "MEAN_ANOMALY": 61.9483, "EPHEMERIS_TYPE": 0, "CLASSIFICATION_TYPE": "U", "NORAD_CAT_ID": 35628, "ELEMENT_SET_NO": 999, "REV_AT_EPOCH": 86616, "BSTAR": 0.0014718585, "MEAN_MOTION_DOT": 8.414e-05, "MEAN_MOTION_DDOT": 0}, "tle": {"line1": "1 35628U 97051RA  25358.30438367  .00008414  00000+0  14719-2 0  9993", "line2": "2 35628  86.3568   3.9163 0009340 298.0786  61.9483 14.67742209866160"}}, "geometry": {"type": "Point", "coordinates": [-1.6456397367773337, -51.49417468521271]}}, {"type": "Feature", "properties": {"norad_id": 35631, "name": "IRIDIUM 33 DEB", "group": "iridium-33-debris", "lat": -79.69194551831792, "lon": -5.390474659507266, "alt_km": 754.3645453966374, "timestamp": "2025-12-26T11:25:45.576514+00:00", "meta": {"OBJECT_NAME": "IRIDIUM 33 DEB", "OBJECT_ID": "1997-051RD", "EPOCH": "2025-12-25T01:14:45.811104", "MEAN_MOTION": 14.47344148, "ECCENTRICITY": 0.00192475, "INCLINATION": 86.3663, "RA_OF_ASC_NODE": 15.6731, "ARG_OF_PERICENTER": 81.4254, "MEAN_ANOMALY": 341.8279, "EPHEMERIS_TYPE": 0, "CLASSIFICATION_TYPE": "U", "NORAD_CAT_ID": 35631, "ELEMENT_SET_NO": 999, "REV_AT_EPOCH": 87375, "BSTAR": 0.00038061169, "MEAN_MOTION_DOT": 1.417e-05, "MEAN_MOTION_DDOT": 0}, "tle": {"line1": "1 35631U 97051RD  25359.05191911  .00001417  00000+0  38061-3 0  9994", "line2": "2 35631  86.3663  15.6731 0019247  81.4254 341.8279 14.47344148873756"}}, "geometry": {"type": "Point", "coordinates": [-5.390474659507266, -79.69194551831792]}}, {"type": "Feature", "properties": {"norad_id": 35680, "name": "IRIDIUM 33 DEB", "group": "iridium-33-debris", "lat": 32.4180289910785, "lon": 17.92021158660491, "alt_km": 920.0966765328321, "timestamp": "2025-12-26T11:25:45.576524+00:00", "meta": {"OBJECT_NAME": "IRIDIUM 33 DEB", "OBJECT_ID": "1997-051RJ", "EPOCH": "2025-12-25T12:20:44.933280", "MEAN_MOTION": 14.2111887, "ECCENTRICITY": 0.015075, "INCLINATION": 86.1022, "RA_OF_ASC_NODE": 15.8645, "ARG_OF_PERICENTER": 237.61, "MEAN_ANOMALY": 276.707, "EPHEMERIS_TYPE": 0, "CLASSIFICATION_TYPE": "U", "NORAD_CAT_ID": 35680, "ELEMENT_SET_NO": 999, "REV_AT_EPOCH": 60882, "BSTAR": 0.0034387, "MEAN_MOTION_DOT": 8.4e-05, "MEAN_MOTION_DDOT": 0}, "tle": {"line1": "1 35680U 97051RJ  25359.51440895  .00008400  00000+0  34387-2 0  9992", "line2": "2 35680  86.1022  15.8645 0150750 237.6100 276.7070 14.21118870608825"}}, "geometry": {"type": "Point", "coordinates": [17.92021158660491, 32.4180289910785]}}, {"type": "Feature", "properties": {"norad_id": 35744, "name": "IRIDIUM 33 DEB", "group": "iridium-33-debris", "lat": 14.190386163237521, "lon": -39.84142597468839, "alt_km": 668.2980013714332, "timestamp": "2025-12-26T11:25:45.576534+00:00", "meta": {"OBJECT_NAME": "IRIDIUM 33 DEB", "OBJECT_ID": "1997-051RX", "EPOCH": "2025-12-24T15:17:19.932000", "MEAN_MOTION": 14.71145759, "ECCENTRICITY": 0.00219113, "INCLINATION": 86.3301, "RA_OF_ASC_NODE": 320.0594, "ARG_OF_PERICENTER": 150.6894, "MEAN_ANOMALY": 209.5557, "EPHEMERIS_TYPE": 0, "CLASSIFICATION_TYPE": "U", "NORAD_CAT_ID": 35744, "ELEMENT_SET_NO": 999, "REV_AT_EPOCH": 87506, "BSTAR": 0.0011850025, "MEAN_MOTION_DOT": 7.344e-05, "MEAN_MOTION_DDOT": 0}, "tle": {"line1": "1 35744U 97051RX  25358.63703625  .00007344  00000+0  11850-2 0  9994", "line2": "2 35744  86.3301 320.0594 0021911 150.6894 209.5557 14.71145759875069"}}, "geometry": {"type": "Point", "coordinates": [-39.84142597468839, 14.190386163237521]}}]}